     2.100          NAVIGATION                              RINEX VERSION / TYPE
fic2rin                                 09/06/2014 00:25:14 PGM / RUN BY / DATE
                                                            END OF HEADER
18 14  9  5  4  0  0.0  .342719256878D-03  .250111042988D-11  .000000000000D+00
     .105000000000D+03  .185312500000D+02  .572952437197D-08 -.210143933480D+01
     .944361090660D-06  .154869937105D-01  .540539622307D-05  .515371742630D+04
     .446400000000D+06  .210478901863D-06 -.242173639468D+01 -.372529029846D-08
     .925648293744D+00  .250562500000D+03 -.201248443295D+01 -.843963725905D-08
     .341442793891D-09  .100000000000D+01  .180800000000D+04  .000000000000D+00
     .240000000000D+01  .000000000000D+00 -.107102096081D-07  .105000000000D+03
     .439206000000D+06  .400000000000D+01
19 14  9  5  4  0  0.0 -.477112829685D-03 -.193267624127D-11  .000000000000D+00
     .590000000000D+02 -.123625000000D+03  .421981862953D-08  .181221169691D+01
    -.635907053947D-05  .105879746843D-01  .825338065624D-05  .515365597153D+04
     .446400000000D+06 -.143423676491D-06  .187343551195D+01  .279396772385D-07
     .966567745038D+00  .226875000000D+03  .496882583325D+00 -.807997942072D-08
    -.258582199558D-09  .100000000000D+01  .180800000000D+04  .000000000000D+00
     .240000000000D+01  .000000000000D+00 -.149011611938D-07  .590000000000D+02
     .439206000000D+06  .400000000000D+01
20 14  9  5  4  0  0.0  .230163335800D-03  .443378667114D-11  .000000000000D+00
     .390000000000D+02  .244062500000D+02  .580417033842D-08 -.159426842313D+01
     .143423676491D-05  .592423474882D-02  .565871596336D-05  .515372765541D+04
     .446400000000D+06  .838190317154D-07 -.247468872899D+01  .108033418655D-06
     .926755863170D+00  .252625000000D+03  .132796179887D+01 -.864321716755D-08
     .314298806093D-09  .100000000000D+01  .180800000000D+04  .000000000000D+00
     .240000000000D+01  .000000000000D+00 -.791624188423D-08  .390000000000D+02
     .439206000000D+06  .400000000000D+01
21 14  9  5  4  0  0.0 -.382266007364D-03 -.216004991671D-11  .000000000000D+00
     .350000000000D+02 -.640625000000D+01  .504449583779D-08 -.115696095348D+01
     .763684511185D-07  .216227842029D-01  .110920518637D-04  .515370384789D+04
     .446400000000D+06  .230967998505D-06  .281724299611D+01  .577419996262D-06
     .933143077612D+00  .148937500000D+03 -.199748766326D+01 -.834356182855D-08
     .498949354672D-09  .100000000000D+01  .180800000000D+04  .000000000000D+00
     .240000000000D+01  .000000000000D+00 -.111758708954D-07  .350000000000D+02
     .439206000000D+06  .400000000000D+01
22 14  9  5  4  0  0.0  .265067908913D-03  .352429196937D-11  .000000000000D+00
     .810000000000D+02  .193750000000D+02  .584274337371D-08 -.265406714738D+01
     .832602381706D-06  .736154220067D-02  .569969415665D-05  .515371578598D+04
     .446400000000D+06  .132247805595D-06 -.242004630444D+01 -.428408384323D-07
     .923434129195D+00  .248468750000D+03 -.204936945315D+01 -.859785813530D-08
     .261439461432D-09  .100000000000D+01  .180800000000D+04  .000000000000D+00
     .340000000000D+01  .000000000000D+00 -.172294676304D-07  .810000000000D+02
     .439206000000D+06  .400000000000D+01
23 14  9  5  4  0  0.0 -.499151647091D-04 -.295585778076D-11  .000000000000D+00
     .530000000000D+02 -.144062500000D+02  .501092301077D-08  .139937767054D+01
    -.506639480591D-06  .970279483590D-02  .951811671257D-05  .515373887062D+04
     .446400000000D+06 -.782310962677D-07 -.135368735227D+01  .100582838058D-06
     .950459368276D+00  .193187500000D+03 -.273219020733D+01 -.829177395710D-08
    -.621454457501D-09  .100000000000D+01  .180800000000D+04  .000000000000D+00
     .240000000000D+01  .000000000000D+00 -.200234353542D-07  .530000000000D+02
     .439206000000D+06  .400000000000D+01
24 14  9  5  4  0  0.0 -.346726737916D-04 -.568434188608D-12  .000000000000D+00
     .610000000000D+02  .933125000000D+02  .457054752451D-08  .728444964645D+00
     .490620732307D-05  .218468753155D-02  .912137329578D-05  .515371781158D+04
     .446400000000D+06  .316649675369D-07 -.326739540436D+00  .353902578354D-07
     .956204254888D+00  .197968750000D+03  .261419124676D+00 -.814176770873D-08
    -.760745973838D-10  .100000000000D+01  .180800000000D+04  .000000000000D+00
     .240000000000D+01  .000000000000D+00  .279396772385D-08  .610000000000D+02
     .439206000000D+06  .400000000000D+01
25 14  9  5  4  0  0.0  .222362577915D-04 -.909494701773D-12  .000000000000D+00
     .220000000000D+02  .171250000000D+02  .438125392538D-08 -.133001284805D+01
     .908970832825D-06  .366622896399D-02  .268220901489D-05  .515355910301D+04
     .446400000000D+06  .707805156708D-07  .729941265052D+00 -.335276126862D-07
     .976935228954D+00  .338781250000D+03  .728303281029D+00 -.833999025121D-08
    -.164292557730D-10  .100000000000D+01  .180800000000D+04  .000000000000D+00
     .240000000000D+01  .000000000000D+00  .558793544769D-08  .220000000000D+02
     .439206000000D+06  .400000000000D+01
26 14  9  5  4  0  0.0 -.441004522145D-04 -.133013600134D-10  .000000000000D+00
     .180000000000D+02 -.475000000000D+01  .439196865741D-08  .137368149254D+01
    -.450760126114D-06  .212092469446D-01  .991672277451D-05  .515369050217D+04
     .446400000000D+06 -.415369868279D-06 -.126304761644D+01 -.283122062683D-06
     .973631104124D+00  .201156250000D+03  .129179417906D+01 -.805354974839D-08
    -.444661379074D-09  .100000000000D+01  .180800000000D+04  .000000000000D+00
     .240000000000D+01  .000000000000D+00 -.605359673500D-08  .180000000000D+02
     .439206000000D+06  .400000000000D+01
27 14  9  5  4  0  0.0  .118920579553D-04  .306954461848D-11  .000000000000D+00
     .570000000000D+02 -.125281250000D+03  .429589322691D-08  .248467450247D+01
    -.643357634544D-05  .146003474947D-02  .696070492268D-05  .515368553352D+04
     .446400000000D+06  .502914190292D-07  .177673995944D+01  .372529029846D-08
     .964216158353D+00  .247156250000D+03  .346862816869D+00 -.816355433052D-08
    -.221437795202D-09  .100000000000D+01  .180800000000D+04  .000000000000D+00
     .240000000000D+01  .000000000000D+00  .186264514923D-08  .570000000000D+02
     .439206000000D+06  .400000000000D+01
28 14  9  5  4  0  0.0  .382112804800D-03  .261479726760D-11  .000000000000D+00
     .200000000000D+02  .125312500000D+02  .399052336417D-08 -.282739798532D+01
     .678002834320D-06  .192620600574D-01  .248849391937D-05  .515367907143D+04
     .446400000000D+06  .270083546638D-06  .797773443860D+00  .000000000000D+00
     .987369449729D+00  .344656250000D+03 -.170930451670D+01 -.779925344164D-08
     .853606984729D-10  .100000000000D+01  .180800000000D+04  .000000000000D+00
     .240000000000D+01  .000000000000D+00 -.107102096081D-07  .200000000000D+02
     .439206000000D+06  .400000000000D+01
29 14  9  5  4  0  0.0  .558265019208D-03  .238742359215D-11  .000000000000D+00
     .310000000000D+02 -.114312500000D+03  .409374194936D-08 -.980438452546D+00
    -.584125518799D-05  .118900672533D-02  .853836536407D-05  .515365276337D+04
     .446400000000D+06 -.689178705215D-07  .183207073815D+01  .428408384323D-07
     .970211360489D+00  .218906250000D+03 -.794764312072D+00 -.800926218935D-08
    -.172150027883D-09  .100000000000D+01  .180800000000D+04  .000000000000D+00
     .240000000000D+01  .000000000000D+00 -.977888703346D-08  .310000000000D+02
     .439206000000D+06  .400000000000D+01
30 14  9  5  4  0  0.0 -.579953193665D-04 -.488853402203D-11  .000000000000D+00
     .180000000000D+02  .885312500000D+02  .439411160381D-08 -.226331071118D+00
     .447034835815D-05  .101682613604D-02  .891834497452D-05  .515367020607D+04
     .446400000000D+06 -.298023223877D-07 -.237374886931D+00  .558793544769D-08
     .958550083527D+00  .206500000000D+03  .306926652064D+01 -.805533553706D-08
    -.282154610015D-10  .100000000000D+01  .180800000000D+04  .000000000000D+00
     .240000000000D+01  .000000000000D+00  .325962901115D-08  .180000000000D+02
     .439206000000D+06  .400000000000D+01
31 14  9  5  4  0  0.0  .332049559802D-03 -.341060513165D-12  .000000000000D+00
     .900000000000D+02  .105156250000D+03  .404659712844D-08 -.184584796081D+00
     .542216002941D-05  .802093523089D-02  .995956361294D-05  .515362234688D+04
     .446400000000D+06  .465661287308D-07 -.283823507325D+00 -.135973095894D-06
     .977839834588D+00  .198906250000D+03 -.632549032915D+00 -.798497546342D-08
     .360729311538D-10  .100000000000D+01  .180800000000D+04  .000000000000D+00
     .240000000000D+01  .000000000000D+00 -.130385160446D-07  .900000000000D+02
     .439206000000D+06  .400000000000D+01
32 14  9  5  4  0  0.0 -.347255729139D-03  .852651282912D-11  .000000000000D+00
     .400000000000D+02  .136562500000D+02  .546951354148D-08  .363361318772D+00
     .774860382080D-06  .114126330009D-01  .565685331821D-05  .515365031052D+04
     .446400000000D+06  .212341547012D-06 -.232543395458D+01 -.223517417908D-07
     .947486974750D+00  .265625000000D+03 -.978588620430D-01 -.860035823944D-08
     .174292974288D-09  .100000000000D+01  .180800000000D+04  .000000000000D+00
     .240000000000D+01  .000000000000D+00 -.325962901115D-08  .400000000000D+02
     .439206000000D+06  .400000000000D+01
15 14  9  5  3 59 44.0 -.200993381441D-03 -.227373675443D-11  .000000000000D+00
     .500000000000D+01 -.400000000000D+01  .538915305128D-08  .190674869039D+01
    -.689178705215D-07  .649484386668D-02  .888109207153D-05  .515375507164D+04
     .446384000000D+06 -.689178705215D-07 -.140191130422D+01  .201165676117D-06
     .935355864092D+00  .196312500000D+03  .274167408287D+00 -.841392190219D-08
    -.479662837025D-09  .100000000000D+01  .180800000000D+04  .000000000000D+00
     .240000000000D+01  .000000000000D+00 -.102445483208D-07  .500000000000D+01
     .443946000000D+06  .400000000000D+01
